start=new Date('2021-09-10T00:00:00.000Z').valueOf();
sats=[{"BSTAR":"0.00011345000000","REF_FRAME":"TEME","TLE_LINE1":"1 46790U 20074BD  21252.88851939  .00001408  00000-0  11345-3 0  9992","CENTER_NAME":"EARTH","OBJECT_NAME":"STARLINK-1931","MEAN_MOTION_DDOT":"0.0000000000000","LAUNCH_DATE":"2020-10-24","PERIAPSIS":"545.742","TLE_LINE2":"2 46790  53.0550 131.9410 0002135  67.4999 292.6216 15.06397875 49215","SEMIMAJOR_AXIS":"6925.355","PERIOD":"95.592","ARG_OF_PERICENTER":"67.4999","OBJECT_TYPE":"PAYLOAD","MEAN_ELEMENT_THEORY":"SGP4","MEAN_MOTION_DOT":"0.00001408","ELEMENT_SET_NO":"999","GP_ID":"184408125","FILE":"3111873","ECCENTRICITY":"0.00021350","MEAN_ANOMALY":"292.6216","APOAPSIS":"548.699","RA_OF_ASC_NODE":"131.9410","MEAN_MOTION":"15.06397875","OBJECT_ID":"2020-074BD","TIME_SYSTEM":"UTC","COUNTRY_CODE":"US","EPOCH":"2021-09-09T21:19:28.075296","RCS_SIZE":"LARGE","INCLINATION":"53.0550","SITE":"AFETR","NORAD_CAT_ID":"46790","REV_AT_EPOCH":"4921","CLASSIFICATION_TYPE":"U","DECAY_DATE":null,"EPHEMERIS_TYPE":"0"},{"CENTER_NAME":"EARTH","OBJECT_NAME":"STARLINK-1933","TLE_LINE1":"1 46791U 20074BE  21252.90326073  .00001574  00000-0  12453-3 0  9997","REF_FRAME":"TEME","BSTAR":"0.00012453000000","LAUNCH_DATE":"2020-10-24","MEAN_MOTION_DDOT":"0.0000000000000","PERIOD":"95.592","SEMIMAJOR_AXIS":"6925.341","TLE_LINE2":"2 46791  53.0551 131.8943 0002001  73.4288 286.6920 15.06402552 49222","PERIAPSIS":"545.820","ELEMENT_SET_NO":"999","MEAN_MOTION_DOT":"0.00001574","MEAN_ELEMENT_THEORY":"SGP4","OBJECT_TYPE":"PAYLOAD","ARG_OF_PERICENTER":"73.4288","APOAPSIS":"548.591","MEAN_ANOMALY":"286.6920","ECCENTRICITY":"0.00020010","FILE":"3111873","GP_ID":"184408877","OBJECT_ID":"2020-074BE","TIME_SYSTEM":"UTC","RA_OF_ASC_NODE":"131.8943","MEAN_MOTION":"15.06402552","INCLINATION":"53.0551","RCS_SIZE":"LARGE","EPOCH":"2021-09-09T21:40:41.727072","COUNTRY_CODE":"US","EPHEMERIS_TYPE":"0","DECAY_DATE":null,"CLASSIFICATION_TYPE":"U","REV_AT_EPOCH":"4922","NORAD_CAT_ID":"46791","SITE":"AFETR"},{"TLE_LINE2":"2 46792  53.0552 122.9588 0002214  80.9649 279.1590 15.06401097 49324","PERIOD":"95.592","SEMIMAJOR_AXIS":"6925.345","PERIAPSIS":"545.677","ELEMENT_SET_NO":"999","ARG_OF_PERICENTER":"80.9649","MEAN_MOTION_DOT":"-0.00000487","MEAN_ELEMENT_THEORY":"SGP4","OBJECT_TYPE":"PAYLOAD","TLE_LINE1":"1 46792U 20074BF  21252.66460696 -.00000487  00000-0 -13757-4 0  9994","OBJECT_NAME":"STARLINK-1934","CENTER_NAME":"EARTH","BSTAR":"-0.00001375700000","REF_FRAME":"TEME","LAUNCH_DATE":"2020-10-24","MEAN_MOTION_DDOT":"0.0000000000000","INCLINATION":"53.0552","EPOCH":"2021-09-09T15:57:02.041344","COUNTRY_CODE":"US","RCS_SIZE":"LARGE","REV_AT_EPOCH":"4932","CLASSIFICATION_TYPE":"U","EPHEMERIS_TYPE":"0","DECAY_DATE":null,"SITE":"AFETR","NORAD_CAT_ID":"46792","ECCENTRICITY":"0.00022140","MEAN_ANOMALY":"279.1590","APOAPSIS":"548.743","GP_ID":"184409117","FILE":"3111873","OBJECT_ID":"2020-074BF","TIME_SYSTEM":"UTC","MEAN_MOTION":"15.06401097","RA_OF_ASC_NODE":"122.9588"},{"ELEMENT_SET_NO":"999","MEAN_MOTION_DOT":"-0.00000407","MEAN_ELEMENT_THEORY":"SGP4","OBJECT_TYPE":"PAYLOAD","ARG_OF_PERICENTER":"77.4447","PERIOD":"95.593","SEMIMAJOR_AXIS":"6925.366","TLE_LINE2":"2 46793  53.0562 131.9220 0002003  77.4447 282.6766 15.06394229 49212","PERIAPSIS":"545.844","LAUNCH_DATE":"2020-10-24","MEAN_MOTION_DDOT":"0.0000000000000","OBJECT_NAME":"STARLINK-1941","CENTER_NAME":"EARTH","TLE_LINE1":"1 46793U 20074BG  21252.89221146 -.00000407  00000-0 -84124-5 0  9994","REF_FRAME":"TEME","BSTAR":"-0.00000841240000","EPHEMERIS_TYPE":"0","DECAY_DATE":null,"REV_AT_EPOCH":"4921","CLASSIFICATION_TYPE":"U","NORAD_CAT_ID":"46793","SITE":"AFETR","INCLINATION":"53.0562","RCS_SIZE":"LARGE","EPOCH":"2021-09-09T21:24:47.070144","COUNTRY_CODE":"US","TIME_SYSTEM":"UTC","OBJECT_ID":"2020-074BG","MEAN_MOTION":"15.06394229","RA_OF_ASC_NODE":"131.9220","MEAN_ANOMALY":"282.6766","APOAPSIS":"548.618","ECCENTRICITY":"0.00020030","FILE":"3111873","GP_ID":"184408375"},{"COUNTRY_CODE":"US","EPOCH":"2021-09-09T21:35:23.552160","RCS_SIZE":"LARGE","INCLINATION":"53.0541","SITE":"AFETR","NORAD_CAT_ID":"46794","CLASSIFICATION_TYPE":"U","REV_AT_EPOCH":"4922","DECAY_DATE":null,"EPHEMERIS_TYPE":"0","GP_ID":"184408625","FILE":"3111873","ECCENTRICITY":"0.00021290","MEAN_ANOMALY":"282.2275","APOAPSIS":"548.694","MEAN_MOTION":"15.06398083","RA_OF_ASC_NODE":"131.9112","TIME_SYSTEM":"UTC","OBJECT_ID":"2020-074BH","PERIAPSIS":"545.745","TLE_LINE2":"2 46794  53.0541 131.9112 0002129  77.8952 282.2275 15.06398083 49228","SEMIMAJOR_AXIS":"6925.354","PERIOD":"95.592","ARG_OF_PERICENTER":"77.8952","OBJECT_TYPE":"PAYLOAD","MEAN_MOTION_DOT":"0.00001361","MEAN_ELEMENT_THEORY":"SGP4","ELEMENT_SET_NO":"999","BSTAR":"0.00011030000000","REF_FRAME":"TEME","TLE_LINE1":"1 46794U 20074BH  21252.89957815  .00001361  00000-0  11030-3 0  9996","CENTER_NAME":"EARTH","OBJECT_NAME":"STARLINK-1942","MEAN_MOTION_DDOT":"0.0000000000000","LAUNCH_DATE":"2020-10-24"},{"TLE_LINE1":"1 46795U 20074BJ  21252.58623030  .00004684  00000-0  11693-3 0  9998","CENTER_NAME":"EARTH","OBJECT_NAME":"STARLINK-1943","BSTAR":"0.00011693000000","REF_FRAME":"TEME","LAUNCH_DATE":"2020-10-24","MEAN_MOTION_DDOT":"0.0000000000000","TLE_LINE2":"2 46795  53.0512  94.5324 0007689 316.1993  43.8400 15.42180433 49450","PERIOD":"93.374","SEMIMAJOR_AXIS":"6817.812","PERIAPSIS":"434.435","ELEMENT_SET_NO":"999","ARG_OF_PERICENTER":"316.1993","OBJECT_TYPE":"PAYLOAD","MEAN_ELEMENT_THEORY":"SGP4","MEAN_MOTION_DOT":"0.00004684","ECCENTRICITY":"0.00076890","MEAN_ANOMALY":"43.8400","APOAPSIS":"444.920","GP_ID":"184386182","FILE":"3111809","OBJECT_ID":"2020-074BJ","TIME_SYSTEM":"UTC","MEAN_MOTION":"15.42180433","RA_OF_ASC_NODE":"94.5324","INCLINATION":"53.0512","COUNTRY_CODE":"US","EPOCH":"2021-09-09T14:04:10.297920","RCS_SIZE":"LARGE","CLASSIFICATION_TYPE":"U","REV_AT_EPOCH":"4945","DECAY_DATE":null,"EPHEMERIS_TYPE":"0","SITE":"AFETR","NORAD_CAT_ID":"46795"},{"OBJECT_ID":"2020-074BK","TIME_SYSTEM":"UTC","RA_OF_ASC_NODE":"122.0072","MEAN_MOTION":"15.06390618","ECCENTRICITY":"0.00021910","MEAN_ANOMALY":"281.5519","APOAPSIS":"548.760","GP_ID":"184409617","FILE":"3111873","CLASSIFICATION_TYPE":"U","REV_AT_EPOCH":"4935","EPHEMERIS_TYPE":"0","DECAY_DATE":null,"SITE":"AFETR","NORAD_CAT_ID":"46796","INCLINATION":"53.0550","EPOCH":"2021-09-09T20:59:34.925856","COUNTRY_CODE":"US","RCS_SIZE":"LARGE","LAUNCH_DATE":"2020-10-24","MEAN_MOTION_DDOT":"0.0000000000000","TLE_LINE1":"1 46796U 20074BK  21252.87470979 -.00000597  00000-0 -21136-4 0  9998","CENTER_NAME":"EARTH","OBJECT_NAME":"STARLINK-1944","BSTAR":"-0.00002113600000","REF_FRAME":"TEME","ELEMENT_SET_NO":"999","ARG_OF_PERICENTER":"78.5716","MEAN_MOTION_DOT":"-0.00000597","MEAN_ELEMENT_THEORY":"SGP4","OBJECT_TYPE":"PAYLOAD","TLE_LINE2":"2 46796  53.0550 122.0072 0002191  78.5716 281.5519 15.06390618 49354","PERIOD":"95.593","SEMIMAJOR_AXIS":"6925.377","PERIAPSIS":"545.725"},{"PERIOD":"95.593","SEMIMAJOR_AXIS":"6925.376","TLE_LINE2":"2 46797  53.0610 101.9895 0005858 176.4950 183.6081 15.06391036 49645","PERIAPSIS":"543.184","ELEMENT_SET_NO":"999","MEAN_ELEMENT_THEORY":"SGP4","MEAN_MOTION_DOT":"-0.00000751","OBJECT_TYPE":"PAYLOAD","ARG_OF_PERICENTER":"176.4950","OBJECT_NAME":"STARLINK-1947","CENTER_NAME":"EARTH","TLE_LINE1":"1 46797U 20074BL  21252.87655123 -.00000751  00000-0 -31389-4 0  9998","REF_FRAME":"TEME","BSTAR":"-0.00003138900000","LAUNCH_DATE":"2020-10-24","MEAN_MOTION_DDOT":"0.0000000000000","INCLINATION":"53.0610","RCS_SIZE":"LARGE","EPOCH":"2021-09-09T21:02:14.026272","COUNTRY_CODE":"US","EPHEMERIS_TYPE":"0","DECAY_DATE":null,"REV_AT_EPOCH":"4964","CLASSIFICATION_TYPE":"U","NORAD_CAT_ID":"46797","SITE":"AFETR","MEAN_ANOMALY":"183.6081","APOAPSIS":"551.298","ECCENTRICITY":"0.00058580","FILE":"3111873","GP_ID":"184407876","OBJECT_ID":"2020-074BL","TIME_SYSTEM":"UTC","RA_OF_ASC_NODE":"101.9895","MEAN_MOTION":"15.06391036"},{"DECAY_DATE":null,"EPHEMERIS_TYPE":"0","REV_AT_EPOCH":"4901","CLASSIFICATION_TYPE":"U","NORAD_CAT_ID":"46798","SITE":"AFETR","INCLINATION":"53.0542","RCS_SIZE":"LARGE","COUNTRY_CODE":"US","EPOCH":"2021-09-09T21:45:19.232640","TIME_SYSTEM":"UTC","OBJECT_ID":"2020-074BM","RA_OF_ASC_NODE":"146.8792","MEAN_MOTION":"15.06398477","MEAN_ANOMALY":"285.5177","APOAPSIS":"548.722","ECCENTRICITY":"0.00021720","FILE":"3111873","GP_ID":"184408126","ELEMENT_SET_NO":"999","OBJECT_TYPE":"PAYLOAD","MEAN_ELEMENT_THEORY":"SGP4","MEAN_MOTION_DOT":"0.00000468","ARG_OF_PERICENTER":"74.6052","PERIOD":"95.592","SEMIMAJOR_AXIS":"6925.353","TLE_LINE2":"2 46798  53.0542 146.8792 0002172  74.6052 285.5177 15.06398477 49017","PERIAPSIS":"545.714","LAUNCH_DATE":"2020-10-24","MEAN_MOTION_DDOT":"0.0000000000000","OBJECT_NAME":"STARLINK-1948","CENTER_NAME":"EARTH","TLE_LINE1":"1 46798U 20074BM  21252.90647260  .00000468  00000-0  50326-4 0  9991","REF_FRAME":"TEME","BSTAR":"0.00005032600000"},{"ELEMENT_SET_NO":"999","ARG_OF_PERICENTER":"73.6849","OBJECT_TYPE":"PAYLOAD","MEAN_MOTION_DOT":"0.00001832","MEAN_ELEMENT_THEORY":"SGP4","TLE_LINE2":"2 47122  53.0536 112.0790 0002012  73.6849 286.4361 15.06403208 44379","SEMIMAJOR_AXIS":"6925.339","PERIOD":"95.592","PERIAPSIS":"545.810","LAUNCH_DATE":"2020-11-25","MEAN_MOTION_DDOT":"0.0000000000000","TLE_LINE1":"1 47122U 20088A   21252.86087917  .00001832  00000-0  14186-3 0  9999","OBJECT_NAME":"STARLINK-1777","CENTER_NAME":"EARTH","BSTAR":"0.00014186000000","REF_FRAME":"TEME","REV_AT_EPOCH":"4437","CLASSIFICATION_TYPE":"U","DECAY_DATE":null,"EPHEMERIS_TYPE":"0","SITE":"AFETR","NORAD_CAT_ID":"47122","INCLINATION":"53.0536","COUNTRY_CODE":"US","EPOCH":"2021-09-09T20:39:39.960288","RCS_SIZE":"LARGE","OBJECT_ID":"2020-088A","TIME_SYSTEM":"UTC","MEAN_MOTION":"15.06403208","RA_OF_ASC_NODE":"112.0790","ECCENTRICITY":"0.00020120","MEAN_ANOMALY":"286.4361","APOAPSIS":"548.597","GP_ID":"184408164","FILE":"3111873"}];
